STARLINK-30820          
1 58190U 23167R   26068.52241888 -.00000474  00000+0 -77075-5 0  9999
2 58190  42.9985 143.9823 0000351 241.3107 118.7709 15.27569171130965
FLOCK 4G-5              
1 62663U 25009BG  26068.45638436  .00011278  00000+0  40688-3 0  9997
2 62663  97.4058 151.2478 0002094 314.5072  45.5996 15.28679529 63699
